CCSDS_OMM_VERS = 2.0
CREATION_DATE  = 
ORIGINATOR     = 

OBJECT_NAME    = STARLINK-36773
OBJECT_ID      = 2026-032E
CENTER_NAME    = EARTH
REF_FRAME      = TEME
TIME_SYSTEM    = UTC
MEAN_ELEMENT_THEORY = SGP/SGP4

EPOCH          = 2026-03-04T12:00:00.999648
MEAN_MOTION    = 15.75136617
ECCENTRICITY   = .00013863
INCLINATION    = 97.2834
RA_OF_ASC_NODE = 249.7387
ARG_OF_PERICENTER = 76.6828
MEAN_ANOMALY   = 40.7128

EPHEMERIS_TYPE = 0
CLASSIFICATION_TYPE = U
NORAD_CAT_ID   = 67801
ELEMENT_SET_NO = 999
REV_AT_EPOCH   = 388
BSTAR          = .34087945E-3
MEAN_MOTION_DOT = .509E-3
MEAN_MOTION_DDOT = 0

CCSDS_OMM_VERS = 2.0
CREATION_DATE  = 
ORIGINATOR     = 

OBJECT_NAME    = STARLINK-36739
OBJECT_ID      = 2026-032F
CENTER_NAME    = EARTH
REF_FRAME      = TEME
TIME_SYSTEM    = UTC
MEAN_ELEMENT_THEORY = SGP/SGP4

EPOCH          = 2026-03-04T11:05:50.069184
MEAN_MOTION    = 15.80165527
ECCENTRICITY   = .00019213
INCLINATION    = 97.2834
RA_OF_ASC_NODE = 249.7395
ARG_OF_PERICENTER = 153.1218
MEAN_ANOMALY   = 207.0150

EPHEMERIS_TYPE = 0
CLASSIFICATION_TYPE = U
NORAD_CAT_ID   = 67802
ELEMENT_SET_NO = 999
REV_AT_EPOCH   = 396
BSTAR          = -.22362015E-2
MEAN_MOTION_DOT = -.39763E-2
MEAN_MOTION_DDOT = 0

CCSDS_OMM_VERS = 2.0
CREATION_DATE  = 
ORIGINATOR     = 

OBJECT_NAME    = STARLINK-36768
OBJECT_ID      = 2026-032G
CENTER_NAME    = EARTH
REF_FRAME      = TEME
TIME_SYSTEM    = UTC
MEAN_ELEMENT_THEORY = SGP/SGP4

EPOCH          = 2026-03-04T12:00:00.999648
MEAN_MOTION    = 15.75174436
ECCENTRICITY   = .00015661
INCLINATION    = 97.2832
RA_OF_ASC_NODE = 249.7527
ARG_OF_PERICENTER = 91.0894
MEAN_ANOMALY   = 60.2921

EPHEMERIS_TYPE = 0
CLASSIFICATION_TYPE = U
NORAD_CAT_ID   = 67803
ELEMENT_SET_NO = 999
REV_AT_EPOCH   = 394
BSTAR          = -.109649E-3
MEAN_MOTION_DOT = -.16442E-3
MEAN_MOTION_DDOT = 0

CCSDS_OMM_VERS = 2.0
CREATION_DATE  = 
ORIGINATOR     = 

OBJECT_NAME    = STARLINK-36792
OBJECT_ID      = 2026-032H
CENTER_NAME    = EARTH
REF_FRAME      = TEME
TIME_SYSTEM    = UTC
MEAN_ELEMENT_THEORY = SGP/SGP4

EPOCH          = 2026-03-04T12:00:00.999648
MEAN_MOTION    = 15.75154426
ECCENTRICITY   = .00015214
INCLINATION    = 97.2836
RA_OF_ASC_NODE = 249.7470
ARG_OF_PERICENTER = 67.6140
MEAN_ANOMALY   = 69.7778

EPHEMERIS_TYPE = 0
CLASSIFICATION_TYPE = U
NORAD_CAT_ID   = 67804
ELEMENT_SET_NO = 999
REV_AT_EPOCH   = 388
BSTAR          = .20038528E-3
MEAN_MOTION_DOT = .29818E-3
MEAN_MOTION_DDOT = 0

CCSDS_OMM_VERS = 2.0
CREATION_DATE  = 
ORIGINATOR     = 

OBJECT_NAME    = STARLINK-36782
OBJECT_ID      = 2026-032J
CENTER_NAME    = EARTH
REF_FRAME      = TEME
TIME_SYSTEM    = UTC
MEAN_ELEMENT_THEORY = SGP/SGP4

EPOCH          = 2026-03-04T14:05:30.558336
MEAN_MOTION    = 15.80891384
ECCENTRICITY   = .0001853
INCLINATION    = 97.2829
RA_OF_ASC_NODE = 249.8755
ARG_OF_PERICENTER = 82.1197
MEAN_ANOMALY   = 278.0281

EPHEMERIS_TYPE = 0
CLASSIFICATION_TYPE = U
NORAD_CAT_ID   = 67805
ELEMENT_SET_NO = 999
REV_AT_EPOCH   = 398
BSTAR          = .13494647E-2
MEAN_MOTION_DOT = .267344E-2
MEAN_MOTION_DDOT = 0

CCSDS_OMM_VERS = 2.0
CREATION_DATE  = 
ORIGINATOR     = 

OBJECT_NAME    = STARLINK-36389
OBJECT_ID      = 2026-032K
CENTER_NAME    = EARTH
REF_FRAME      = TEME
TIME_SYSTEM    = UTC
MEAN_ELEMENT_THEORY = SGP/SGP4

EPOCH          = 2026-03-04T12:00:00.999648
MEAN_MOTION    = 15.75142345
ECCENTRICITY   = .00017282
INCLINATION    = 97.2835
RA_OF_ASC_NODE = 249.7743
ARG_OF_PERICENTER = 84.8211
MEAN_ANOMALY   = 116.5577

EPHEMERIS_TYPE = 0
CLASSIFICATION_TYPE = U
NORAD_CAT_ID   = 67806
ELEMENT_SET_NO = 999
REV_AT_EPOCH   = 394
BSTAR          = .50798208E-3
MEAN_MOTION_DOT = .76162E-3
MEAN_MOTION_DDOT = 0

CCSDS_OMM_VERS = 2.0
CREATION_DATE  = 
ORIGINATOR     = 

OBJECT_NAME    = STARLINK-36382
OBJECT_ID      = 2026-032L
CENTER_NAME    = EARTH
REF_FRAME      = TEME
TIME_SYSTEM    = UTC
MEAN_ELEMENT_THEORY = SGP/SGP4

EPOCH          = 2026-03-04T12:00:00.999648
MEAN_MOTION    = 15.75185540
ECCENTRICITY   = .00018743
INCLINATION    = 97.2835
RA_OF_ASC_NODE = 249.7788
ARG_OF_PERICENTER = 90.3800
MEAN_ANOMALY   = 122.9972

EPHEMERIS_TYPE = 0
CLASSIFICATION_TYPE = U
NORAD_CAT_ID   = 67807
ELEMENT_SET_NO = 999
REV_AT_EPOCH   = 388
BSTAR          = -.2312347E-4
MEAN_MOTION_DOT = -.3577E-4
MEAN_MOTION_DDOT = 0

CCSDS_OMM_VERS = 2.0
CREATION_DATE  = 
ORIGINATOR     = 

OBJECT_NAME    = STARLINK-36811
OBJECT_ID      = 2026-032M
CENTER_NAME    = EARTH
REF_FRAME      = TEME
TIME_SYSTEM    = UTC
MEAN_ELEMENT_THEORY = SGP/SGP4

EPOCH          = 2026-03-04T14:00:44.485344
MEAN_MOTION    = 15.80873263
ECCENTRICITY   = .0001715
INCLINATION    = 97.2829
RA_OF_ASC_NODE = 249.8795
ARG_OF_PERICENTER = 30.4156
MEAN_ANOMALY   = 329.7211

EPHEMERIS_TYPE = 0
CLASSIFICATION_TYPE = U
NORAD_CAT_ID   = 67808
ELEMENT_SET_NO = 999
REV_AT_EPOCH   = 398
BSTAR          = .11080013E-2
MEAN_MOTION_DOT = .218054E-2
MEAN_MOTION_DDOT = 0

CCSDS_OMM_VERS = 2.0
CREATION_DATE  = 
ORIGINATOR     = 

OBJECT_NAME    = STARLINK-36795
OBJECT_ID      = 2026-032N
CENTER_NAME    = EARTH
REF_FRAME      = TEME
TIME_SYSTEM    = UTC
MEAN_ELEMENT_THEORY = SGP/SGP4

EPOCH          = 2026-03-04T12:00:00.999648
MEAN_MOTION    = 15.75157406
ECCENTRICITY   = .00014699
INCLINATION    = 97.2832
RA_OF_ASC_NODE = 249.7612
ARG_OF_PERICENTER = 68.9147
MEAN_ANOMALY   = 104.4800

EPHEMERIS_TYPE = 0
CLASSIFICATION_TYPE = U
NORAD_CAT_ID   = 67809
ELEMENT_SET_NO = 999
REV_AT_EPOCH   = 394
BSTAR          = .10499846E-3
MEAN_MOTION_DOT = .15538E-3
MEAN_MOTION_DDOT = 0

CCSDS_OMM_VERS = 2.0
CREATION_DATE  = 
ORIGINATOR     = 

OBJECT_NAME    = STARLINK-36807
OBJECT_ID      = 2026-032P
CENTER_NAME    = EARTH
REF_FRAME      = TEME
TIME_SYSTEM    = UTC
MEAN_ELEMENT_THEORY = SGP/SGP4

EPOCH          = 2026-03-04T12:26:43.831104
MEAN_MOTION    = 15.80403415
ECCENTRICITY   = .0000591
INCLINATION    = 97.2825
RA_OF_ASC_NODE = 249.8142
ARG_OF_PERICENTER = 71.0691
MEAN_ANOMALY   = 289.0641

EPHEMERIS_TYPE = 0
CLASSIFICATION_TYPE = U
NORAD_CAT_ID   = 67810
ELEMENT_SET_NO = 999
REV_AT_EPOCH   = 397
BSTAR          = -.67510212E-3
MEAN_MOTION_DOT = -.125229E-2
MEAN_MOTION_DDOT = 0

CCSDS_OMM_VERS = 2.0
CREATION_DATE  = 
ORIGINATOR     = 

OBJECT_NAME    = STARLINK-36733
OBJECT_ID      = 2026-032Q
CENTER_NAME    = EARTH
REF_FRAME      = TEME
TIME_SYSTEM    = UTC
MEAN_ELEMENT_THEORY = SGP/SGP4

EPOCH          = 2026-03-04T13:55:59.103552
MEAN_MOTION    = 15.80900352
ECCENTRICITY   = .00017584
INCLINATION    = 97.2827
RA_OF_ASC_NODE = 249.8826
ARG_OF_PERICENTER = 96.3370
MEAN_ANOMALY   = 263.8098

EPHEMERIS_TYPE = 0
CLASSIFICATION_TYPE = U
NORAD_CAT_ID   = 67811
ELEMENT_SET_NO = 999
REV_AT_EPOCH   = 398
BSTAR          = .13881439E-2
MEAN_MOTION_DOT = .275379E-2
MEAN_MOTION_DDOT = 0

CCSDS_OMM_VERS = 2.0
CREATION_DATE  = 
ORIGINATOR     = 

OBJECT_NAME    = STARLINK-36377
OBJECT_ID      = 2026-032R
CENTER_NAME    = EARTH
REF_FRAME      = TEME
TIME_SYSTEM    = UTC
MEAN_ELEMENT_THEORY = SGP/SGP4

EPOCH          = 2026-03-04T13:51:24.957216
MEAN_MOTION    = 15.80903724
ECCENTRICITY   = .00015358
INCLINATION    = 97.2831
RA_OF_ASC_NODE = 249.8872
ARG_OF_PERICENTER = 63.0818
MEAN_ANOMALY   = 297.0607

EPHEMERIS_TYPE = 0
CLASSIFICATION_TYPE = U
NORAD_CAT_ID   = 67812
ELEMENT_SET_NO = 999
REV_AT_EPOCH   = 398
BSTAR          = .13567636E-2
MEAN_MOTION_DOT = .268992E-2
MEAN_MOTION_DDOT = 0

