STARLINK-36773          
1 67801U 26032E   26063.50001157  .00050900  00000+0  34088-3 0  9990
2 67801  97.2834 249.7387 0001386  76.6828  40.7128 15.75136617  3885
STARLINK-36739          
1 67802U 26032F   26063.46238506 -.00397630  00000+0 -22362-2 0  9993
2 67802  97.2834 249.7395 0001921 153.1218 207.0150 15.80165527  3964
STARLINK-36768          
1 67803U 26032G   26063.50001157 -.00016442  00000+0 -10965-3 0  9995
2 67803  97.2832 249.7527 0001566  91.0894  60.2921 15.75174436  3941
STARLINK-36792          
1 67804U 26032H   26063.50001157  .00029818  00000+0  20039-3 0  9998
2 67804  97.2836 249.7470 0001521  67.6140  69.7778 15.75154426  3881
STARLINK-36782          
1 67805U 26032J   26063.58715924  .00267344  00000+0  13495-2 0  9996
2 67805  97.2829 249.8755 0001853  82.1197 278.0281 15.80891384  3985
STARLINK-36389          
1 67806U 26032K   26063.50001157  .00076162  00000+0  50798-3 0  9999
2 67806  97.2835 249.7743 0001728  84.8211 116.5577 15.75142345  3946
STARLINK-36382          
1 67807U 26032L   26063.50001157 -.00003577  00000+0 -23123-4 0  9995
2 67807  97.2835 249.7788 0001874  90.3800 122.9972 15.75185540  3881
STARLINK-36811          
1 67808U 26032M   26063.58384821  .00218054  00000+0  11080-2 0  9999
2 67808  97.2829 249.8795 0001715  30.4156 329.7211 15.80873263  3983
STARLINK-36795          
1 67809U 26032N   26063.50001157  .00015538  00000+0  10500-3 0  9999
2 67809  97.2832 249.7612 0001469  68.9147 104.4800 15.75157406  3943
STARLINK-36807          
1 67810U 26032P   26063.51856286 -.00125229  00000+0 -67510-3 0  9997
2 67810  97.2825 249.8142 0000591  71.0691 289.0641 15.80403415  3976
STARLINK-36733          
1 67811U 26032Q   26063.58054518  .00275379  00000+0  13881-2 0  9994
2 67811  97.2827 249.8826 0001758  96.3370 263.8098 15.80900352  3987
STARLINK-36377          
1 67812U 26032R   26063.57737219  .00268992  00000+0  13568-2 0  9995
2 67812  97.2831 249.8872 0001535  63.0818 297.0607 15.80903724  3986
